GPS BIIA-10 (PRN 32)    
1 20959U 90103A   09169.58145872 -.00000048  00000-0  10000-3 0  2959
2 20959  55.2121 282.9393 0135544 293.4439  65.1522  2.00578174135931
GPS BIIA-11 (PRN 24)    
1 21552U 91047A   09169.78882090  .00000076  00000-0  10000-3 0  3163
2 21552  54.4668 220.9345 0068087 321.6521  37.9544  2.00562863131520
GPS BIIA-12 (PRN 25)    
1 21890U 92009A   09169.79250912 -.00000055  00000-0  10000-3 0  3157
2 21890  55.5713  32.6555 0116367 290.5809  68.2319  2.00566572126901
GPS BIIA-14 (PRN 26)    
1 22014U 92039A   09169.46949553 -.00000061  00000-0  10000-3 0  2009
2 22014  56.8832 341.2585 0202005  57.8383 304.1185  2.00422117117666
GPS BIIA-15 (PRN 27)    
1 22108U 92058A   09169.98274733 -.00000054  00000-0  10000-3 0  1227
2 22108  55.8370  34.7366 0215478 269.3168  88.2709  2.00550849122859
GPS BIIA-21 (PRN 09)    
1 22700U 93042A   09169.51504466 -.00000055  00000-0  10000-3 0  4849
2 22700  55.9479  36.1378 0203649  85.1450 277.2367  2.00568581117005
GPS BIIA-23 (PRN 04)    
1 22877U 93068A   09169.65137648  .00000079  00000-0  10000-3 0  7906
2 22877  53.8828 218.3366 0084693  26.7016 333.8183  2.00554003114658
GPS BIIA-24 (PRN 06)    
1 23027U 94016A   09169.85552929  .00000099  00000-0  10000-3 0  8085
2 23027  53.5079 155.3871 0061990 282.6731  76.6374  2.00559721111961
GPS BIIA-25 (PRN 03)    
1 23833U 96019A   09169.87229047  .00000092  00000-0  10000-3 0  9993
2 23833  53.0804 151.5022 0117633  51.3409 309.7005  2.00567738 96940
GPS BIIA-26 (PRN 10)    
1 23953U 96041A   09170.29124097 -.00000041  00000-0  10000-3 0  4493
2 23953  54.8932 279.3993 0084778  35.7364 324.8401  2.00570799 94744
GPS BIIA-27 (PRN 30)    
1 24320U 96056A   09170.14227043 -.00000013  00000-0  10000-3 0  1875
2 24320  54.5606  95.5817 0112219  81.5000 279.7557  2.00573334 93409
GPS BIIR-02 (PRN 13)    
1 24876U 97035A   09169.74253064 -.00000061  00000-0  10000-3 0  9674
2 24876  57.0013 341.3844 0038928  91.2966 269.1673  2.00560991 87264
GPS BIIA-28 (PRN 08)    
1 25030U 97067A   09169.87158461 -.00000051  00000-0  10000-3 0  8736
2 25030  56.6585  41.5489 0105870 174.9376 185.2234  2.00567099 85169
GPS BIIR-03 (PRN 11)    
1 25933U 99055A   09170.01116588  .00000096  00000-0  10000-3 0  4283
2 25933  50.9589 205.7404 0092432  39.3802 321.3679  2.00561236 71089
GPS BIIR-04 (PRN 20)    
1 26360U 00025A   09169.61192747 -.00000040  00000-0  10000-3 0  5227
2 26360  53.9568 276.6333 0036980  78.0357 282.4010  2.00573242 66779
GPS BIIR-05 (PRN 28)    
1 26407U 00040A   09169.95202413 -.00000004  00000-0  10000-3 0  4684
2 26407  55.4002  99.7863 0151089 244.7412 113.6707  2.00566744 65456
GPS BIIR-06 (PRN 14)    
1 26605U 00071A   09169.55006931 -.00000062  00000-0  10000-3 0  4720
2 26605  56.6313 340.2685 0046587 238.3535 121.2021  2.00571666 63047
GPS BIIR-07 (PRN 18)    
1 26690U 01004A   09169.92198094 -.00000043  00000-0  10000-3 0  3609
2 26690  53.9760 279.7067 0106000 222.5658 136.6284  2.00571988 61467
GPS BIIR-08 (PRN 16)    
1 27663U 03005A   09169.77286439 -.00000004  00000-0  10000-3 0  7260
2 27663  55.5017  99.3281 0054241 338.2660  21.4884  2.00577131 46817
GPS BIIR-09 (PRN 21)    
1 27704U 03010A   09169.33554475  .00000075  00000-0  10000-3 0  6202
2 27704  53.5111 219.0926 0154311 212.3214 146.8068  2.00570251 45595
GPS BIIR-10 (PRN 22)    
1 28129U 03058A   09169.46394625 -.00000045  00000-0  10000-3 0  2416
2 28129  53.8435 280.0463 0052320 253.3181 106.1270  2.00565031 40306
GPS BIIR-11 (PRN 19)    
1 28190U 04009A   09169.91070338  .00000109  00000-0  10000-3 0  1805
2 28190  54.8621 162.2484 0057734 338.1068  21.6564  2.00570765 38489
GPS BIIR-12 (PRN 23)    
1 28361U 04023A   09169.19829894 -.00000064  00000-0  10000-3 0    57
2 28361  55.5868 338.4031 0061404 167.7883 192.3801  2.00571785 36554
GPS BIIR-13 (PRN 02)    
1 28474U 04045A   09169.69238552  .00000082  00000-0  10000-3 0  8839
2 28474  53.9295 217.2813 0090440 163.5023 196.8760  2.00564498 33923
GPS BIIRM-1 (PRN 17)    
1 28874U 05038A   09170.04415549  .00000105  00000-0  10000-3 0  1413
2 28874  54.9938 159.0346 0045970 211.4382 148.2933  2.00561672 27359
GPS BIIRM-2 (PRN 31)    
1 29486U 06042A   09170.65415789 -.00000051  00000-0  10000-3 0  4696
2 29486  55.7574  37.9186 0072172 294.7106  64.5920  2.00558242 20068
GPS BIIRM-3 (PRN 12)    
1 29601U 06052A   09170.10419812 -.00000008  00000-0  10000-3 0  4903
2 29601  55.4161  98.3397 0034729 317.1753  42.5540  2.00566670 18969
GPS BIIRM-4 (PRN 15)    
1 32260U 07047A   09169.40287613 -.00000066  00000-0  00000-0 0  2623
2 32260  54.7963 337.2300 0015578 325.9757  33.9332  2.00569926 12343
GPS BIIRM-5 (PRN 29)    
1 32384U 07062A   09169.23499941  .00000111  00000-0  10000-3 0  2856
2 32384  55.0050 159.5388 0036496 284.5222  75.0861  2.00563491 11064
GPS BIIRM-6 (PRN 07)    
1 32711U 08012A   09170.32167827 -.00000053  00000-0  10000-3 0  1779
2 32711  55.4428  38.0476 0025702 169.7297 190.3816  2.00564631  9294
GPS BIIRM-7 (PRN 01)    
1 34661U 09014A   09170.14293147 -.00000009  00000-0  10000-3 0   649
2 34661  55.0648  97.6385 0032379  50.2113 310.0617  2.00554554  1801
